<?xml version="1.0" encoding="UTF-8"?>
<kml xmlns="http://www.opengis.net/kml/2.2">
  <Document>
    <name>21km Course</name>
    <description>Bottle Lake Forest, Christchurch</description>
    <Style id="icon-123-nodesc-normal">
      <IconStyle>
        <scale>1.1</scale>
        <Icon>
          <href>https://www.gstatic.com/mapspro/images/stock/123-red-dot.png</href>
        </Icon>
        <hotSpot x="16" xunits="pixels" y="32" yunits="insetPixels"/>
      </IconStyle>
      <LabelStyle>
        <scale>0</scale>
      </LabelStyle>
      <BalloonStyle>
        <text><![CDATA[<h3>$[name]</h3>]]></text>
      </BalloonStyle>
    </Style>
    <Style id="icon-123-nodesc-highlight">
      <IconStyle>
        <scale>1.1</scale>
        <Icon>
          <href>https://www.gstatic.com/mapspro/images/stock/123-red-dot.png</href>
        </Icon>
        <hotSpot x="16" xunits="pixels" y="32" yunits="insetPixels"/>
      </IconStyle>
      <LabelStyle>
        <scale>1.1</scale>
      </LabelStyle>
      <BalloonStyle>
        <text><![CDATA[<h3>$[name]</h3>]]></text>
      </BalloonStyle>
    </Style>
    <StyleMap id="icon-123-nodesc">
      <Pair>
        <key>normal</key>
        <styleUrl>#icon-123-nodesc-normal</styleUrl>
      </Pair>
      <Pair>
        <key>highlight</key>
        <styleUrl>#icon-123-nodesc-highlight</styleUrl>
      </Pair>
    </StyleMap>
    <Style id="icon-61-nodesc-normal">
      <IconStyle>
        <scale>1.1</scale>
        <Icon>
          <href>https://www.gstatic.com/mapspro/images/stock/61-green-dot.png</href>
        </Icon>
        <hotSpot x="16" xunits="pixels" y="32" yunits="insetPixels"/>
      </IconStyle>
      <LabelStyle>
        <scale>0</scale>
      </LabelStyle>
      <BalloonStyle>
        <text><![CDATA[<h3>$[name]</h3>]]></text>
      </BalloonStyle>
    </Style>
    <Style id="icon-61-nodesc-highlight">
      <IconStyle>
        <scale>1.1</scale>
        <Icon>
          <href>https://www.gstatic.com/mapspro/images/stock/61-green-dot.png</href>
        </Icon>
        <hotSpot x="16" xunits="pixels" y="32" yunits="insetPixels"/>
      </IconStyle>
      <LabelStyle>
        <scale>1.1</scale>
      </LabelStyle>
      <BalloonStyle>
        <text><![CDATA[<h3>$[name]</h3>]]></text>
      </BalloonStyle>
    </Style>
    <StyleMap id="icon-61-nodesc">
      <Pair>
        <key>normal</key>
        <styleUrl>#icon-61-nodesc-normal</styleUrl>
      </Pair>
      <Pair>
        <key>highlight</key>
        <styleUrl>#icon-61-nodesc-highlight</styleUrl>
      </Pair>
    </StyleMap>
    <Style id="line-0288D1-5000-nodesc-normal">
      <LineStyle>
        <color>ffd18802</color>
        <width>5</width>
      </LineStyle>
      <BalloonStyle>
        <text><![CDATA[<h3>$[name]</h3>]]></text>
      </BalloonStyle>
    </Style>
    <Style id="line-0288D1-5000-nodesc-highlight">
      <LineStyle>
        <color>ffd18802</color>
        <width>7.5</width>
      </LineStyle>
      <BalloonStyle>
        <text><![CDATA[<h3>$[name]</h3>]]></text>
      </BalloonStyle>
    </Style>
    <StyleMap id="line-0288D1-5000-nodesc">
      <Pair>
        <key>normal</key>
        <styleUrl>#line-0288D1-5000-nodesc-normal</styleUrl>
      </Pair>
      <Pair>
        <key>highlight</key>
        <styleUrl>#line-0288D1-5000-nodesc-highlight</styleUrl>
      </Pair>
    </StyleMap>
    <Folder>
      <name>21km Course</name>
      <Placemark>
        <name>Start</name>
        <styleUrl>#icon-61-nodesc</styleUrl>
        <Point>
          <coordinates>
            172.682843,-43.468406,3
          </coordinates>
        </Point>
      </Placemark>
      <Placemark>
        <name>Finish</name>
        <styleUrl>#icon-123-nodesc</styleUrl>
        <Point>
          <coordinates>
            172.682869548834,-43.46841466177,2.98384046296212
          </coordinates>
        </Point>
      </Placemark>
      <Placemark>
        <name>21km Course</name>
        <styleUrl>#line-0288D1-5000-nodesc</styleUrl>
        <LineString>
          <tessellate>1</tessellate>
          <coordinates>
            172.682843,-43.468406,0
            172.6829,-43.468379,0
            172.682995,-43.468316,0
            172.683203,-43.468181,0
            172.683267,-43.468136,0
            172.683346,-43.468062,0
            172.683382,-43.46796,0
            172.683342,-43.467879,0
            172.683284,-43.467788,0
            172.683154,-43.467573,0
            172.683088,-43.467458,0
            172.682882,-43.467082,0
            172.682814,-43.466954,0
            172.682695,-43.466712,0
            172.68258,-43.466489,0
            172.682381,-43.466144,0
            172.682319,-43.466034,0
            172.682117,-43.465658,0
            172.681937,-43.465308,0
            172.681902,-43.465245,0
            172.681792,-43.465055,0
            172.681757,-43.46499,0
            172.681576,-43.464669,0
            172.681474,-43.464504,0
            172.68141,-43.464369,0
            172.681188,-43.464009,0
            172.681162,-43.463958,0
            172.681136,-43.463912,0
            172.680987,-43.463626,0
            172.680925,-43.463521,0
            172.680911,-43.463475,0
            172.680922,-43.463382,0
            172.680946,-43.463295,0
            172.680958,-43.463249,0
            172.681012,-43.463172,0
            172.681096,-43.463092,0
            172.681148,-43.463047,0
            172.681188,-43.463002,0
            172.681234,-43.462961,0
            172.681299,-43.462901,0
            172.681445,-43.462792,0
            172.681629,-43.462643,0
            172.681804,-43.462497,0
            172.682061,-43.462304,0
            172.682128,-43.462259,0
            172.68247,-43.462032,0
            172.682543,-43.461989,0
            172.682937,-43.461734,0
            172.683452,-43.461406,0
            172.684549,-43.46067,0
            172.68616,-43.459572,0
            172.688567,-43.458024,0
            172.688622,-43.457553,0
            172.688804,-43.457222,0
            172.689621,-43.455392,0
            172.690452,-43.453574,0
            172.690548,-43.453392,0
            172.690641,-43.45319,0
            172.690737,-43.452972,0
            172.690894,-43.452643,0
            172.691034,-43.45231,0
            172.691149,-43.452085,0
            172.691331,-43.451684,0
            172.691627,-43.450976,0
            172.691741,-43.450696,0
            172.691873,-43.450392,0
            172.692025,-43.450071,0
            172.692218,-43.449631,0
            172.692687,-43.448658,0
            172.692958,-43.448102,0
            172.693147,-43.447728,0
            172.69349,-43.447004,0
            172.693721,-43.446478,0
            172.693897,-43.44615,0
            172.693975,-43.445964,0
            172.694126,-43.44567,0
            172.694357,-43.445216,0
            172.694552,-43.444775,0
            172.694844,-43.444135,0
            172.694948,-43.443889,0
            172.695258,-43.44323,0
            172.695431,-43.442828,0
            172.695522,-43.442621,0
            172.695696,-43.442262,0
            172.695881,-43.441875,0
            172.696229,-43.441085,0
            172.693855,-43.44052,0
            172.694363,-43.439413,0
            172.695226,-43.437652,0
            172.697467,-43.438192,0
            172.700704,-43.439022,0
            172.701506,-43.439207,0
            172.703122,-43.439559,0
            172.70403,-43.439849,0
            172.703615,-43.44086,0
            172.702853,-43.442694,0
            172.707528,-43.443834,0
            172.707408,-43.443995,0
            172.70716,-43.444062,0
            172.706738,-43.444026,0
            172.706613,-43.443897,0
            172.706338,-43.443869,0
            172.706178,-43.443935,0
            172.706104,-43.444063,0
            172.706064,-43.44434,0
            172.705895,-43.444555,0
            172.706176,-43.444711,0
            172.706212,-43.444828,0
            172.706324,-43.444914,0
            172.706254,-43.445101,0
            172.705792,-43.445174,0
            172.705546,-43.445153,0
            172.705267,-43.445229,0
            172.70509,-43.44544,0
            172.70487,-43.445558,0
            172.704864,-43.445664,0
            172.704794,-43.445684,0
            172.704761,-43.445809,0
            172.70492,-43.445876,0
            172.704994,-43.44616,0
            172.705173,-43.446165,0
            172.705342,-43.446294,0
            172.705403,-43.446406,0
            172.705504,-43.446465,0
            172.705712,-43.446688,0
            172.705739,-43.446809,0
            172.705552,-43.446837,0
            172.705483,-43.446959,0
            172.705569,-43.447077,0
            172.705559,-43.447141,0
            172.705389,-43.447146,0
            172.705294,-43.447309,0
            172.705144,-43.447419,0
            172.705416,-43.447584,0
            172.705451,-43.447788,0
            172.705313,-43.448039,0
            172.705318,-43.448149,0
            172.70541,-43.448227,0
            172.705325,-43.448384,0
            172.705328,-43.448568,0
            172.705428,-43.448651,0
            172.705501,-43.448676,0
            172.705426,-43.448843,0
            172.705528,-43.449071,0
            172.70548,-43.449198,0
            172.705586,-43.449307,0
            172.705535,-43.449354,0
            172.705345,-43.449369,0
            172.705403,-43.449588,0
            172.705154,-43.449677,0
            172.705088,-43.449804,0
            172.70513,-43.449884,0
            172.705288,-43.449837,0
            172.705435,-43.44986,0
            172.705329,-43.450093,0
            172.705394,-43.450256,0
            172.705492,-43.450334,0
            172.705377,-43.45078,0
            172.705374,-43.450963,0
            172.70551,-43.451076,0
            172.705761,-43.450971,0
            172.705973,-43.45099,0
            172.706088,-43.451243,0
            172.705989,-43.451387,0
            172.705802,-43.451489,0
            172.705631,-43.451738,0
            172.705079,-43.451711,0
            172.704957,-43.451801,0
            172.704883,-43.451957,0
            172.704843,-43.452169,0
            172.704932,-43.452412,0
            172.704885,-43.452493,0
            172.704626,-43.452608,0
            172.704282,-43.452692,0
            172.704092,-43.452901,0
            172.703775,-43.453001,0
            172.70304,-43.452933,0
            172.702708,-43.452958,0
            172.702397,-43.453046,0
            172.701571,-43.452879,0
            172.701324,-43.45293,0
            172.700938,-43.452864,0
            172.700712,-43.452971,0
            172.700294,-43.453001,0
            172.700177,-43.45313,0
            172.700103,-43.453306,0
            172.700009,-43.453722,0
            172.699835,-43.454004,0
            172.69966,-43.4541,0
            172.699633,-43.454311,0
            172.699505,-43.454485,0
            172.699338,-43.454527,0
            172.69921,-43.454837,0
            172.698787,-43.455042,0
            172.698749,-43.455129,0
            172.698664,-43.455193,0
            172.698551,-43.455205,0
            172.698471,-43.455248,0
            172.697999,-43.455246,0
            172.697496,-43.455184,0
            172.697273,-43.455194,0
            172.69704,-43.455426,0
            172.697091,-43.455619,0
            172.697024,-43.455883,0
            172.697073,-43.456371,0
            172.696896,-43.456517,0
            172.697028,-43.456726,0
            172.697018,-43.456891,0
            172.696847,-43.457033,0
            172.696708,-43.457284,0
            172.696708,-43.457401,0
            172.69672,-43.457534,0
            172.697118,-43.457641,0
            172.696949,-43.458691,0
            172.696406,-43.458642,0
            172.696046,-43.458612,0
            172.695775,-43.458582,0
            172.695547,-43.458583,0
            172.695445,-43.458622,0
            172.695302,-43.458784,0
            172.69505,-43.459191,0
            172.694889,-43.45947,0
            172.694872,-43.459517,0
            172.694855,-43.459602,0
            172.694849,-43.459648,0
            172.694842,-43.459698,0
            172.694781,-43.46009,0
            172.69469,-43.460577,0
            172.694253,-43.462761,0
            172.693987,-43.462812,0
            172.693724,-43.46288,0
            172.693463,-43.462948,0
            172.693333,-43.462986,0
            172.693142,-43.46303,0
            172.692958,-43.463075,0
            172.692443,-43.463205,0
            172.69215,-43.463282,0
            172.691831,-43.463354,0
            172.691593,-43.463425,0
            172.690947,-43.463589,0
            172.690562,-43.463688,0
            172.690117,-43.463812,0
            172.689842,-43.46388,0
            172.689575,-43.463954,0
            172.68932,-43.464008,0
            172.68883,-43.464132,0
            172.688267,-43.46428,0
            172.687943,-43.464363,0
            172.687519,-43.464473,0
            172.687221,-43.464549,0
            172.686948,-43.464615,0
            172.686664,-43.464684,0
            172.685811,-43.464886,0
            172.685525,-43.464968,0
            172.685303,-43.465033,0
            172.685117,-43.465094,0
            172.685736,-43.466195,0
            172.685884,-43.466453,0
            172.686042,-43.466734,0
            172.686229,-43.467074,0
            172.686347,-43.46728,0
            172.686386,-43.46736,0
            172.686254,-43.467393,0
            172.685742,-43.467524,0
            172.685133,-43.467679,0
            172.684366,-43.467878,0
            172.684061,-43.46795,0
            172.683538,-43.468111,0
            172.684182,-43.469171,0
            172.684724,-43.470154,0
            172.684767,-43.470244,0
            172.68496,-43.470302,0
            172.685239,-43.470353,0
            172.6854,-43.470341,0
            172.68554,-43.470212,0
            172.685733,-43.47003,0
            172.686012,-43.469858,0
            172.686323,-43.46973,0
            172.68668,-43.469596,0
            172.687029,-43.469502,0
            172.68733,-43.469412,0
            172.687512,-43.469342,0
            172.687619,-43.469381,0
            172.6877,-43.469498,0
            172.687786,-43.469693,0
            172.68793,-43.469954,0
            172.688216,-43.470494,0
            172.688446,-43.470928,0
            172.688526,-43.471091,0
            172.68856,-43.471156,0
            172.688656,-43.471199,0
            172.688828,-43.47116,0
            172.689128,-43.471063,0
            172.689558,-43.470938,0
            172.690377,-43.470689,0
            172.690972,-43.47051,0
            172.691578,-43.470319,0
            172.692272,-43.470079,0
            172.693119,-43.469826,0
            172.693586,-43.469678,0
            172.693784,-43.469569,0
            172.693913,-43.469526,0
            172.694114,-43.469571,0
            172.694274,-43.469622,0
            172.694516,-43.469696,0
            172.694757,-43.46977,0
            172.694945,-43.469821,0
            172.69516,-43.469863,0
            172.695288,-43.469863,0
            172.69553,-43.469782,0
            172.696219,-43.469557,0
            172.696504,-43.469452,0
            172.696826,-43.46937,0
            172.697131,-43.469296,0
            172.697539,-43.469179,0
            172.69785,-43.469124,0
            172.698254,-43.46912,0
            172.698802,-43.469256,0
            172.699021,-43.469315,0
            172.6993,-43.469428,0
            172.699477,-43.469494,0
            172.699595,-43.469466,0
            172.699649,-43.469241,0
            172.69974,-43.468649,0
            172.699867,-43.467679,0
            172.699942,-43.467722,0
            172.700006,-43.467815,0
            172.700129,-43.467803,0
            172.700376,-43.4675,0
            172.70087,-43.467434,0
            172.70102,-43.467227,0
            172.701229,-43.467126,0
            172.701788,-43.46719,0
            172.702302,-43.467088,0
            172.702501,-43.466948,0
            172.702919,-43.467053,0
            172.70352,-43.467248,0
            172.703984,-43.467421,0
            172.704488,-43.467612,0
            172.704848,-43.467904,0
            172.704982,-43.467978,0
            172.705218,-43.468087,0
            172.705336,-43.468157,0
            172.705464,-43.46834,0
            172.705631,-43.468441,0
            172.706007,-43.468568,0
            172.706452,-43.468782,0
            172.706865,-43.46893,0
            172.707353,-43.469129,0
            172.707782,-43.469302,0
            172.708109,-43.46943,0
            172.708313,-43.469454,0
            172.708496,-43.46931,0
            172.708828,-43.469166,0
            172.709016,-43.469097,0
            172.709166,-43.469154,0
            172.709542,-43.469294,0
            172.709928,-43.469442,0
            172.71026,-43.469559,0
            172.710539,-43.469652,0
            172.71085,-43.469714,0
            172.71128,-43.469851,0
            172.711927,-43.470083,0
            172.712367,-43.470235,0
            172.712732,-43.470375,0
            172.713145,-43.470531,0
            172.71352,-43.470659,0
            172.713945,-43.470822,0
            172.714535,-43.471036,0
            172.714985,-43.471215,0
            172.715404,-43.471363,0
            172.715763,-43.471487,0
            172.716144,-43.471639,0
            172.716507,-43.471631,0
            172.717097,-43.47155,0
            172.717676,-43.471456,0
            172.71817,-43.471425,0
            172.71871,-43.471464,0
            172.718691,-43.471231,0
            172.71865,-43.471061,0
            172.718462,-43.470678,0
            172.718214,-43.470339,0
            172.718259,-43.469771,0
            172.718525,-43.469806,0
            172.718694,-43.469763,0
            172.718495,-43.46886,0
            172.718342,-43.468363,0
            172.718225,-43.467167,0
            172.718122,-43.466925,0
            172.71789,-43.46673,0
            172.717857,-43.466593,0
            172.7179,-43.466487,0
            172.718064,-43.466236,0
            172.718046,-43.466064,0
            172.717856,-43.465527,0
            172.717686,-43.464859,0
            172.717702,-43.464479,0
            172.717358,-43.463683,0
            172.717358,-43.463385,0
            172.717173,-43.462883,0
            172.717198,-43.462671,0
            172.717095,-43.462303,0
            172.717025,-43.461872,0
            172.716981,-43.461484,0
            172.716994,-43.4613,0
            172.716962,-43.461101,0
            172.716812,-43.460836,0
            172.716608,-43.46063,0
            172.716431,-43.460597,0
            172.716544,-43.460161,0
            172.716475,-43.459726,0
            172.716674,-43.459477,0
            172.716734,-43.459267,0
            172.716624,-43.458825,0
            172.716302,-43.458384,0
            172.716195,-43.45799,0
            172.716255,-43.457388,0
            172.716036,-43.457097,0
            172.7161,-43.456762,0
            172.716058,-43.456514,0
            172.71591,-43.455982,0
            172.71572,-43.455613,0
            172.71579,-43.455467,0
            172.716154,-43.455436,0
            172.716374,-43.455305,0
            172.716293,-43.454996,0
            172.716196,-43.454382,0
            172.715992,-43.454196,0
            172.715558,-43.454038,0
            172.71541,-43.453777,0
            172.715585,-43.453469,0
            172.715527,-43.453169,0
            172.715566,-43.452923,0
            172.71574,-43.452774,0
            172.715628,-43.45255,0
            172.715473,-43.452303,0
            172.715405,-43.452132,0
            172.715401,-43.451866,0
            172.715284,-43.451644,0
            172.715242,-43.451391,0
            172.715275,-43.450846,0
            172.715103,-43.450628,0
            172.715031,-43.45002,0
            172.715067,-43.449739,0
            172.715031,-43.449341,0
            172.714881,-43.448921,0
            172.714918,-43.448576,0
            172.7148,-43.448208,0
            172.714597,-43.447694,0
            172.714441,-43.44738,0
            172.714436,-43.447106,0
            172.714155,-43.44734,0
            172.713855,-43.447457,0
            172.713603,-43.447476,0
            172.713506,-43.447457,0
            172.713002,-43.447546,0
            172.712283,-43.447636,0
            172.711714,-43.447811,0
            172.710518,-43.4482,0
            172.710592,-43.448398,0
            172.710783,-43.448919,0
            172.711012,-43.449491,0
            172.711087,-43.449862,0
            172.711153,-43.451623,0
            172.711157,-43.452448,0
            172.710506,-43.452401,0
            172.709685,-43.452335,0
            172.709627,-43.452485,0
            172.709836,-43.452769,0
            172.710088,-43.453057,0
            172.710201,-43.453302,0
            172.71018,-43.453536,0
            172.710088,-43.453633,0
            172.709944,-43.453723,0
            172.709832,-43.453888,0
            172.709891,-43.454099,0
            172.709902,-43.454239,0
            172.709784,-43.454294,0
            172.709532,-43.454375,0
            172.70936,-43.454391,0
            172.709054,-43.454328,0
            172.708915,-43.454344,0
            172.70877,-43.454457,0
            172.708539,-43.454399,0
            172.708314,-43.454399,0
            172.708046,-43.454671,0
            172.70781,-43.454621,0
            172.707536,-43.454527,0
            172.707397,-43.454508,0
            172.707262,-43.454554,0
            172.70708,-43.454492,0
            172.706973,-43.454539,0
            172.70678,-43.454562,0
            172.706635,-43.454609,0
            172.706495,-43.45466,0
            172.706404,-43.454757,0
            172.706399,-43.454893,0
            172.706388,-43.45501,0
            172.706361,-43.455135,0
            172.706232,-43.455298,0
            172.706267,-43.455504,0
            172.706342,-43.455594,0
            172.706364,-43.455734,0
            172.706514,-43.455816,0
            172.706557,-43.455898,0
            172.706509,-43.455999,0
            172.706423,-43.456077,0
            172.70645,-43.456147,0
            172.706385,-43.456205,0
            172.706364,-43.456303,0
            172.706593,-43.456324,0
            172.706722,-43.45641,0
            172.706797,-43.456554,0
            172.706733,-43.456655,0
            172.706668,-43.456827,0
            172.706561,-43.456955,0
            172.7064,-43.457006,0
            172.706147,-43.45699,0
            172.70597,-43.456975,0
            172.705865,-43.456999,0
            172.705629,-43.456952,0
            172.705452,-43.457009,0
            172.70535,-43.457159,0
            172.705395,-43.457518,0
            172.705364,-43.457631,0
            172.705108,-43.457775,0
            172.704899,-43.458066,0
            172.704755,-43.458544,0
            172.70472,-43.458663,0
            172.704481,-43.458751,0
            172.70444,-43.458866,0
            172.70425,-43.459082,0
            172.703872,-43.459133,0
            172.703542,-43.459106,0
            172.703446,-43.45922,0
            172.703234,-43.45926,0
            172.70311,-43.459326,0
            172.703089,-43.459404,0
            172.703008,-43.459528,0
            172.702955,-43.459618,0
            172.702858,-43.459696,0
            172.702848,-43.459848,0
            172.702826,-43.459992,0
            172.702783,-43.460081,0
            172.702874,-43.460144,0
            172.703008,-43.460179,0
            172.703046,-43.460292,0
            172.70303,-43.460404,0
            172.702992,-43.46059,0
            172.70304,-43.460726,0
            172.703013,-43.460832,0
            172.703131,-43.460917,0
            172.70318,-43.461108,0
            172.703201,-43.461252,0
            172.703314,-43.461416,0
            172.703314,-43.461579,0
            172.703426,-43.4617,0
            172.703303,-43.46175,0
            172.703131,-43.46211,0
            172.703094,-43.46234,0
            172.703078,-43.462488,0
            172.702863,-43.46264,0
            172.702799,-43.462897,0
            172.702774,-43.463098,0
            172.702591,-43.46341,0
            172.702286,-43.463671,0
            172.702103,-43.463718,0
            172.701932,-43.463799,0
            172.701873,-43.463932,0
            172.701669,-43.463978,0
            172.701518,-43.464068,0
            172.70132,-43.464158,0
            172.701282,-43.464306,0
            172.701009,-43.464395,0
            172.700836,-43.464376,0
            172.700686,-43.464461,0
            172.700413,-43.464488,0
            172.699887,-43.46459,0
            172.699232,-43.464481,0
            172.698878,-43.464395,0
            172.698471,-43.464527,0
            172.69773,-43.464325,0
            172.697376,-43.464403,0
            172.696851,-43.46445,0
            172.696593,-43.464527,0
            172.6964,-43.464411,0
            172.695896,-43.464496,0
            172.695402,-43.4645,0
            172.695016,-43.464426,0
            172.694424,-43.464372,0
            172.694038,-43.464368,0
            172.693826,-43.464385,0
            172.69348,-43.464538,0
            172.693261,-43.464721,0
            172.693138,-43.464915,0
            172.69293,-43.465078,0
            172.692558,-43.465251,0
            172.692357,-43.465408,0
            172.692281,-43.465532,0
            172.692114,-43.46567,0
            172.691967,-43.465894,0
            172.686713,-43.467254,0
            172.683366,-43.46813,0
            172.683187,-43.46822,0
            172.68287,-43.468415,0
          </coordinates>
        </LineString>
      </Placemark>
    </Folder>
  </Document>
</kml>
