<?xml version="1.0" encoding="UTF-8"?>
<kml creator="plotaroute.com http://www.plotaroute.com" xmlns="http://earth.google.com/kml/2.2">
<Document>
<name>Queenstown Marathon</name>
<open>1</open>
<Style id="StartIconStyle">
<IconStyle id="StartIcon">
<Icon><href>https://www.plotaroute.com/images/icons/starticon.png</href></Icon>
</IconStyle>
<LabelStyle><scale>0.7</scale></LabelStyle>
</Style>
<Style id="FinishIconStyle">
<IconStyle id="FinishIcon">
<Icon><href>https://www.plotaroute.com/images/icons/finishicon.png</href></Icon>
</IconStyle>
<LabelStyle><scale>0.7</scale></LabelStyle>
</Style>
<Style id="RoutePath">
<LineStyle>
<color>E52975F3</color>
<width>4</width>
</LineStyle>
</Style>
<Style id="WaypointIconStyle">
<IconStyle id="WaypointIcon">
<Icon><href>https://www.plotaroute.com/images/icons/waypointicon.png</href></Icon>
<hotSpot x="0.5" y="0.5" xunits="fraction" yunits="fraction"/>
</IconStyle>
<LabelStyle><scale>0.7</scale></LabelStyle>
</Style>
<LookAt>
<longitude>168.816141</longitude>
<latitude>-44.946964</latitude>
<range>400</range>
<tilt>60</tilt>
<altitudeMode>clampToGround</altitudeMode>
</LookAt>
<Folder id="Route1659730">
<name><![CDATA[Queenstown Marathon]]> </name><description><![CDATA[]]></description><Placemark>
<name><![CDATA[Fly-Over Tour]]></name>
<description><![CDATA[]]></description>
<styleUrl>#RoutePath</styleUrl>
<LineString id="Route">
<extrude>0</extrude>
<tessellate>1</tessellate>
<coordinates>
168.816141,-44.946964,407
168.816141,-44.946964,407
168.818371,-44.94585,410
168.818758,-44.945658,410
168.81968,-44.945452,410
168.81985,-44.945384,410
168.819968,-44.945278,410
168.819999,-44.945218,410
168.820019,-44.945084,411
168.819984,-44.944969,411
168.81987,-44.944806,411
168.819782,-44.944742,411
168.818927,-44.944369,412
168.818672,-44.944213,413
168.818409,-44.943926,414
168.818175,-44.943564,417
168.818047,-44.9432,418
168.818047,-44.9432,418
168.817917,-44.942831,419
168.817874,-44.942455,419
168.81922,-44.942444,418
168.81924,-44.942336,418
168.819319,-44.942208,418
168.819319,-44.942208,418
168.821125,-44.93933,435
168.821317,-44.939061,434
168.821454,-44.938937,433
168.821392,-44.938887,433
168.821392,-44.938887,433
168.821454,-44.938937,433
168.821609,-44.938854,432
168.822287,-44.93867,430
168.822788,-44.938555,427
168.823472,-44.938486,426
168.824192,-44.938478,425
168.824699,-44.938492,429
168.824813,-44.938477,429
168.824813,-44.938477,429
168.82541,-44.938413,429
168.82572,-44.938411,429
168.826269,-44.938478,429
168.82666,-44.938568,429
168.827025,-44.938696,429
168.82778,-44.939053,431
168.827789,-44.938998,430
168.827789,-44.938998,430
168.827901,-44.938391,418
168.827962,-44.93833,417
168.828053,-44.93831,416
168.828698,-44.938275,412
168.829289,-44.938308,408
168.829623,-44.938399,407
168.829706,-44.938412,407
168.829876,-44.938404,406
168.830382,-44.938356,403
168.830382,-44.938356,403
168.830609,-44.938334,403
168.830809,-44.938322,403
168.832334,-44.938519,404
168.832939,-44.938613,404
168.83367,-44.938807,404
168.836349,-44.939439,404
168.836435,-44.939411,404
168.836544,-44.939321,403
168.836517,-44.939289,403
168.836569,-44.939269,403
168.836569,-44.939269,403
168.83716,-44.939038,400
168.837234,-44.939017,400
168.837291,-44.939018,400
168.837339,-44.939044,400
168.837515,-44.938876,400
168.837547,-44.938751,400
168.837453,-44.938568,400
168.837391,-44.938421,400
168.838134,-44.938627,400
168.838134,-44.938627,400
168.83836,-44.93869,400
168.838712,-44.938722,400
168.839205,-44.938986,400
168.839441,-44.93921,400
168.839556,-44.939427,400
168.839889,-44.939723,400
168.84009,-44.939996,400
168.840579,-44.940882,400
168.840656,-44.940928,400
168.840782,-44.941363,400
168.84098,-44.941633,400
168.841264,-44.941929,400
168.841501,-44.942111,400
168.841844,-44.942461,400
168.842021,-44.942711,400
168.842155,-44.942848,400
168.842434,-44.942916,401
168.842665,-44.943209,401
168.842901,-44.943573,400
168.843047,-44.943761,400
168.843112,-44.943951,400
168.843046,-44.944207,400
168.843024,-44.944484,400
168.843179,-44.94472,400
168.843258,-44.944781,400
168.843258,-44.944781,400
168.843448,-44.944929,400
168.844223,-44.94524,400
168.844564,-44.94546,400
168.844921,-44.945749,401
168.845168,-44.946045,401
168.845372,-44.946432,400
168.8454,-44.946544,400
168.845573,-44.946552,401
168.845757,-44.946528,402
168.845951,-44.946734,402
168.846087,-44.946924,402
168.846313,-44.947078,404
168.846527,-44.947357,404
168.846618,-44.948211,400
168.84661,-44.948718,399
168.846704,-44.948915,399
168.846967,-44.949071,400
168.847163,-44.949263,400
168.847324,-44.949551,401
168.847397,-44.949811,400
168.847571,-44.95009,400
168.847568,-44.950367,398
168.847715,-44.950665,397
168.848258,-44.951542,398
168.848399,-44.951896,398
168.848549,-44.95233,397
168.848573,-44.952695,397
168.848619,-44.952896,397
168.848952,-44.953558,396
168.849064,-44.953744,396
168.849242,-44.954207,395
168.849386,-44.95439,394
168.849649,-44.954659,393
168.849901,-44.954777,394
168.850078,-44.954985,392
168.85018,-44.955293,389
168.850191,-44.955934,384
168.850287,-44.956147,383
168.851098,-44.956941,386
168.851336,-44.957136,386
168.852063,-44.958053,382
168.852492,-44.958394,384
168.852787,-44.958795,386
168.852908,-44.959061,386
168.853101,-44.959305,388
168.85305,-44.95986,384
168.85327,-44.960412,387
168.853568,-44.960697,390
168.853777,-44.961086,387
168.854078,-44.961351,388
168.854182,-44.961598,388
168.854303,-44.96168,390
168.854413,-44.961849,392
168.854316,-44.962251,391
168.854155,-44.96276,388
168.85419,-44.962938,388
168.854412,-44.963189,390
168.854412,-44.963189,390
168.854764,-44.963589,387
168.854831,-44.963709,385
168.854813,-44.963783,384
168.854671,-44.963815,382
168.854438,-44.963777,383
168.854232,-44.963785,382
168.853944,-44.963879,381
168.853323,-44.963925,381
168.853263,-44.963984,381
168.853395,-44.964003,381
168.853852,-44.964019,381
168.854215,-44.963915,381
168.853833,-44.964413,381
168.854124,-44.964608,381
168.854332,-44.964631,381
168.854965,-44.964768,381
168.855239,-44.964912,381
168.85533,-44.965003,381
168.855258,-44.965102,381
168.85492,-44.965232,381
168.854815,-44.965329,381
168.854852,-44.965489,381
168.855057,-44.965644,381
168.855108,-44.965742,381
168.855072,-44.965914,381
168.855108,-44.966022,381
168.85523,-44.966229,381
168.855186,-44.966528,381
168.855248,-44.966769,381
168.85518,-44.966867,381
168.855032,-44.966909,381
168.854888,-44.966837,381
168.854767,-44.966802,381
168.85464,-44.96682,381
168.854343,-44.966509,381
168.852921,-44.965367,384
168.851556,-44.964204,385
168.851419,-44.964169,386
168.851477,-44.964701,387
168.851469,-44.965036,387
168.851411,-44.965255,388
168.851231,-44.965662,389
168.850914,-44.966295,390
168.850757,-44.96667,389
168.8504,-44.967955,390
168.849683,-44.967658,392
168.8494,-44.967434,393
168.849184,-44.967153,394
168.848862,-44.967102,394
168.848276,-44.966918,396
168.847443,-44.966602,398
168.846792,-44.966126,400
168.846634,-44.96606,400
168.84641,-44.96608,400
168.84609,-44.96618,400
168.844744,-44.966665,400
168.84455,-44.966695,400
168.844119,-44.966709,400
168.844119,-44.966709,400
168.839259,-44.965985,405
168.838923,-44.96584,407
168.838724,-44.965718,408
168.838472,-44.965528,409
168.83675,-44.964391,402
168.836492,-44.964269,401
168.834566,-44.963575,400
168.833868,-44.963474,400
168.830561,-44.963196,386
168.830356,-44.963077,384
168.830272,-44.963059,384
168.829217,-44.962661,380
168.828393,-44.962215,376
168.827931,-44.962048,372
168.827711,-44.962026,370
168.827254,-44.962015,366
168.824745,-44.96226,358
168.817758,-44.961579,347
168.817901,-44.963115,348
168.817881,-44.963829,350
168.817881,-44.963829,350
168.817774,-44.967932,347
168.817729,-44.969127,347
168.817686,-44.969686,349
168.817617,-44.970154,348
168.817506,-44.97056,346
168.817334,-44.971028,344
168.817128,-44.971489,345
168.816819,-44.972066,345
168.816656,-44.972424,345
168.816613,-44.972601,346
168.81644,-44.972549,340
168.816444,-44.972647,340
168.816358,-44.97325,340
168.81621,-44.973551,337
168.815984,-44.973756,334
168.816038,-44.97456,336
168.815963,-44.974773,334
168.816014,-44.974973,333
168.816014,-44.974973,333
168.816317,-44.975911,332
168.816297,-44.976598,332
168.816455,-44.976924,334
168.816382,-44.977525,334
168.816419,-44.977744,336
168.816391,-44.977898,335
168.816401,-44.977996,335
168.816331,-44.978315,335
168.816203,-44.978704,333
168.816121,-44.979227,331
168.816126,-44.979578,330
168.816189,-44.979769,331
168.816139,-44.979868,330
168.816137,-44.980041,330
168.81607,-44.980233,330
168.816136,-44.980489,330
168.816206,-44.980558,331
168.816243,-44.980874,331
168.816326,-44.981069,332
168.816203,-44.981589,332
168.815885,-44.98205,330
168.815715,-44.982221,330
168.815579,-44.982423,331
168.815579,-44.982423,331
168.815473,-44.98269,333
168.814805,-44.983558,334
168.814361,-44.984227,331
168.813825,-44.98513,330
168.813789,-44.985361,332
168.813642,-44.985513,332
168.813569,-44.985643,332
168.813211,-44.985851,330
168.81302,-44.986001,330
168.812957,-44.986114,330
168.812652,-44.986462,330
168.812502,-44.986661,330
168.812466,-44.98677,330
168.812385,-44.986862,330
168.812343,-44.98696,330
168.812245,-44.98708,330
168.812072,-44.9876,331
168.811924,-44.987778,332
168.811583,-44.987967,331
168.811352,-44.98813,332
168.811227,-44.988158,332
168.810899,-44.988445,333
168.810732,-44.988554,333
168.810508,-44.988634,333
168.81031,-44.988798,334
168.809934,-44.988977,333
168.809638,-44.989332,336
168.808924,-44.989989,338
168.808662,-44.990162,337
168.80843,-44.990354,337
168.808198,-44.990508,336
168.807778,-44.990728,333
168.807705,-44.990805,334
168.807605,-44.990967,335
168.807247,-44.991159,332
168.80709,-44.991348,334
168.806967,-44.991445,334
168.80689,-44.991469,334
168.80672,-44.991575,333
168.80646,-44.991703,332
168.806365,-44.991893,333
168.806149,-44.992055,332
168.806008,-44.992216,331
168.806015,-44.992294,332
168.805904,-44.992475,331
168.805966,-44.992573,334
168.805936,-44.992811,336
168.805782,-44.993159,337
168.805593,-44.993329,336
168.805279,-44.99356,333
168.80502,-44.993847,332
168.80498,-44.994045,333
168.804997,-44.99428,335
168.804867,-44.99447,336
168.804446,-44.994765,333
168.803863,-44.995053,332
168.803534,-44.995133,332
168.803162,-44.995154,332
168.802869,-44.995089,332
168.802792,-44.995052,332
168.802667,-44.995101,333
168.8024,-44.99497,332
168.802068,-44.994914,332
168.80179,-44.994779,332
168.801557,-44.994603,331
168.801302,-44.994462,330
168.801141,-44.994422,331
168.800611,-44.994494,333
168.80033,-44.994397,333
168.800277,-44.994295,333
168.800315,-44.994092,331
168.800112,-44.993674,329
168.800001,-44.993649,329
168.799357,-44.993611,332
168.799176,-44.993569,333
168.798859,-44.993328,333
168.7988,-44.993264,333
168.798806,-44.99302,333
168.798869,-44.992794,332
168.79909,-44.992397,330
168.798639,-44.99162,330
168.798306,-44.991288,331
168.79772,-44.99061,330
168.797546,-44.990527,331
168.797293,-44.990474,331
168.797094,-44.990391,332
168.796911,-44.990264,332
168.796764,-44.990119,332
168.796644,-44.98992,332
168.796645,-44.989728,332
168.796794,-44.989266,331
168.796732,-44.988882,331
168.796733,-44.988661,330
168.796501,-44.988204,330
168.796407,-44.987914,330
168.796206,-44.987698,331
168.796218,-44.987556,331
168.796093,-44.987321,332
168.796221,-44.987086,331
168.796212,-44.986901,332
168.796268,-44.986613,332
168.796262,-44.98648,332
168.796402,-44.986215,332
168.796414,-44.985985,332
168.796289,-44.985602,336
168.796443,-44.985379,337
168.796539,-44.985185,339
168.796633,-44.98514,338
168.796922,-44.984559,344
168.797059,-44.984375,346
168.797406,-44.984034,346
168.79755,-44.983968,344
168.797572,-44.983909,345
168.797659,-44.983797,347
168.79801,-44.983473,348
168.798053,-44.983405,349
168.798567,-44.982994,349
168.798711,-44.982944,346
168.798981,-44.982668,347
168.79911,-44.982578,346
168.79917,-44.982494,346
168.79917,-44.982494,346
168.799387,-44.982192,349
168.799545,-44.982055,349
168.799793,-44.981687,352
168.799906,-44.981646,349
168.800037,-44.981551,347
168.800454,-44.981069,342
168.800522,-44.980863,343
168.800611,-44.980726,344
168.800636,-44.980584,349
168.800886,-44.980392,346
168.8012,-44.980013,348
168.801283,-44.979821,354
168.80144,-44.979544,357
168.801475,-44.979358,360
168.80162,-44.979082,358
168.801886,-44.978946,351
168.802032,-44.978786,352
168.802282,-44.978566,351
168.802417,-44.97849,349
168.802968,-44.97805,345
168.803405,-44.977469,345
168.803483,-44.977322,346
168.803488,-44.977217,347
168.803596,-44.976967,345
168.803635,-44.976735,346
168.803945,-44.975874,341
168.804128,-44.975657,339
168.804287,-44.975384,339
168.804283,-44.975305,340
168.804478,-44.975025,340
168.804875,-44.97434,342
168.805026,-44.974128,341
168.8051,-44.973834,344
168.805143,-44.973736,344
168.805263,-44.973577,342
168.805267,-44.973362,342
168.805306,-44.973059,343
168.805274,-44.972659,347
168.805335,-44.972506,347
168.805369,-44.972338,346
168.80536,-44.972229,347
168.805245,-44.972024,353
168.805414,-44.971576,352
168.805516,-44.971487,349
168.805651,-44.971185,353
168.805648,-44.971011,358
168.805735,-44.970808,359
168.805767,-44.970685,359
168.805767,-44.970685,359
168.805961,-44.970105,356
168.806075,-44.969938,351
168.806089,-44.969679,352
168.806159,-44.969512,349
168.806155,-44.969036,351
168.806298,-44.968551,345
168.806331,-44.96828,345
168.806423,-44.968109,342
168.80641,-44.967872,344
168.806508,-44.967489,347
168.806617,-44.967307,346
168.806781,-44.967229,343
168.807024,-44.967261,336
168.807165,-44.967309,334
168.807307,-44.967273,333
168.807749,-44.967228,332
168.808155,-44.967082,333
168.808283,-44.96696,334
168.808311,-44.96643,340
168.808481,-44.965929,344
168.808523,-44.965504,347
168.808234,-44.964585,353
168.807966,-44.96413,354
168.807414,-44.963358,355
168.807293,-44.963262,355
168.806395,-44.963161,359
168.806264,-44.963177,359
168.805409,-44.963509,359
168.805037,-44.963576,359
168.804662,-44.963551,358
168.804662,-44.963551,358
168.803609,-44.963481,361
168.80361,-44.963181,358
168.803781,-44.962392,355
168.803938,-44.96204,353
168.804477,-44.961021,351
168.804461,-44.960895,351
168.801726,-44.961058,356
168.797813,-44.961315,360
168.797813,-44.961315,360
168.791034,-44.961759,379
168.790369,-44.961865,376
168.788486,-44.962426,373
168.788171,-44.962483,375
168.787885,-44.962498,376
168.787401,-44.96249,376
168.783627,-44.96227,379
168.783229,-44.962315,379
168.782861,-44.962382,380
168.77654,-44.963778,380
168.776226,-44.963897,380
168.775956,-44.96402,380
168.774201,-44.965177,380
168.77366,-44.965453,381
168.772992,-44.965725,380
168.770797,-44.966431,382
168.769506,-44.966535,380
168.762733,-44.968303,380
168.764658,-44.974395,380
168.765247,-44.97634,380
168.765247,-44.97634,380
168.766498,-44.980548,380
168.767626,-44.984148,373
168.767652,-44.986764,376
168.76761,-44.987106,376
168.767149,-44.988008,375
168.766647,-44.987693,373
168.765556,-44.98832,368
168.765397,-44.988357,367
168.764086,-44.987794,360
168.763907,-44.987796,360
168.763679,-44.987877,359
168.763593,-44.987975,358
168.763606,-44.988107,356
168.763571,-44.988257,353
168.763421,-44.988356,350
168.762501,-44.988638,334
168.762134,-44.988629,329
168.762016,-44.988652,327
168.761654,-44.988835,322
168.761254,-44.98894,320
168.760997,-44.989031,320
168.761281,-44.989652,320
168.761281,-44.989652,320
168.761568,-44.990277,321
168.761597,-44.990457,321
168.761793,-44.990899,322
168.761793,-44.99102,322
168.761471,-44.992075,323
168.761289,-44.992234,323
168.760677,-44.9925,321
168.760516,-44.992636,321
168.760398,-44.992803,321
168.760318,-44.993152,321
168.760208,-44.993508,321
168.76005,-44.993892,321
168.759749,-44.995353,321
168.759892,-44.995735,322
168.759822,-44.995936,322
168.75964,-44.996216,322
168.759479,-44.996262,321
168.759386,-44.996386,321
168.75939,-44.996472,321
168.759715,-44.996596,324
168.759907,-44.9967,327
168.760027,-44.996732,329
168.76024,-44.996747,331
168.760242,-44.996646,331
168.759937,-44.996446,326
168.759728,-44.996409,323
168.757569,-44.996499,330
168.757141,-44.996807,334
168.757156,-44.996879,332
168.756947,-44.997115,332
168.756837,-44.997337,331
168.756603,-44.997631,330
168.756534,-44.997823,329
168.756507,-44.997976,327
168.756566,-44.99806,325
168.75685,-44.99817,322
168.756944,-44.998287,320
168.756966,-44.998434,320
168.756735,-44.999433,320
168.756815,-44.999883,320
168.756682,-45.000228,320
168.756536,-45.000408,320
168.756532,-45.000567,319
168.756605,-45.000919,319
168.756754,-45.001332,319
168.756695,-45.001565,319
168.756704,-45.001861,319
168.756652,-45.002046,319
168.756565,-45.002211,318
168.756666,-45.002538,317
168.757709,-45.003952,314
168.75792,-45.0045,314
168.758446,-45.006002,313
168.758408,-45.006502,313
168.758628,-45.006908,313
168.758819,-45.007625,313
168.759298,-45.008586,313
168.760168,-45.009898,313
168.760149,-45.010284,313
168.7601,-45.010523,313
168.7601,-45.010523,313
168.760054,-45.010751,313
168.759786,-45.011549,313
168.759973,-45.011904,313
168.760894,-45.013188,314
168.76226,-45.014831,317
168.764049,-45.016737,319
168.764686,-45.017344,320
168.765277,-45.018262,320
168.765499,-45.019072,320
168.764752,-45.019469,320
168.764469,-45.019525,320
168.764022,-45.019731,320
168.763649,-45.019975,320
168.763538,-45.020065,320
168.763335,-45.020133,320
168.76314,-45.020158,320
168.76293,-45.020232,320
168.762773,-45.020353,321
168.762643,-45.020565,321
168.76189,-45.021179,321
168.761431,-45.021478,321
168.761431,-45.021478,321
168.76124,-45.021602,321
168.761054,-45.021621,322
168.760368,-45.021822,325
168.759296,-45.022396,323
168.758133,-45.02325,322
168.757443,-45.02366,322
168.756902,-45.024243,322
168.756556,-45.024648,323
168.756155,-45.025166,324
168.755158,-45.027417,322
168.754854,-45.027774,323
168.754289,-45.028218,324
168.754162,-45.028438,322
168.753948,-45.028612,321
168.753512,-45.028746,321
168.752847,-45.028989,320
168.752176,-45.029178,320
168.751087,-45.029575,320
168.750581,-45.029788,320
168.750195,-45.02999,320
168.749831,-45.030225,320
168.749143,-45.030886,320
168.748919,-45.031267,320
168.748589,-45.031577,320
168.748202,-45.031818,320
168.747838,-45.031882,320
168.747565,-45.03188,320
168.74718,-45.031927,320
168.746847,-45.031934,320
168.746708,-45.031896,320
168.746553,-45.031813,320
168.746439,-45.031812,320
168.746378,-45.031838,320
168.746289,-45.031915,320
168.746259,-45.032019,320
168.746203,-45.032059,320
168.7461,-45.032066,320
168.7454,-45.031968,320
168.745096,-45.032001,320
168.745006,-45.032075,320
168.744881,-45.032137,320
168.744668,-45.032158,320
168.744033,-45.031942,320
168.743335,-45.031744,321
168.74306,-45.031842,320
168.742931,-45.031858,320
168.742604,-45.031656,321
168.742162,-45.031476,321
168.741735,-45.031266,321
168.741321,-45.031023,320
168.741321,-45.031023,320
168.740816,-45.030727,320
168.739889,-45.03031,320
168.739866,-45.030212,320
168.739957,-45.029856,321
168.739911,-45.029795,321
168.739563,-45.02969,321
168.739183,-45.029684,322
168.738711,-45.029642,323
168.737861,-45.02952,322
168.737347,-45.029464,322
168.736895,-45.029276,323
168.736548,-45.029092,324
168.736225,-45.028667,328
168.735817,-45.028276,328
168.735307,-45.027647,328
168.735166,-45.027525,328
168.735018,-45.027285,328
168.734334,-45.027438,324
168.734104,-45.026849,327
168.734101,-45.026779,327
168.73416,-45.026725,328
168.734187,-45.026656,328
168.733977,-45.026627,327
168.733982,-45.026201,329
168.733816,-45.026132,328
168.733694,-45.026016,328
168.733523,-45.026025,327
168.732777,-45.026199,322
168.732461,-45.026165,319
168.732189,-45.026001,317
168.73211,-45.025906,316
168.731757,-45.025174,317
168.731714,-45.025046,317
168.731702,-45.024885,318
168.73174,-45.024414,320
168.731741,-45.024333,320
168.731617,-45.024136,318
168.73153,-45.024095,317
168.731177,-45.024083,314
168.730903,-45.02402,312
168.730715,-45.023949,310
168.730613,-45.023891,309
168.730511,-45.023938,309
168.730395,-45.023741,309
168.730334,-45.023568,309
168.729915,-45.022158,310
168.729368,-45.021229,310
168.728655,-45.020326,312
168.728391,-45.020096,311
168.728274,-45.019902,311
168.728274,-45.019902,311
168.727775,-45.019386,312
168.726863,-45.018681,311
168.725902,-45.017988,310
168.725495,-45.017729,310
168.723816,-45.017093,310
168.722845,-45.016729,310
168.722486,-45.016656,311
168.72204,-45.016694,311
168.721032,-45.016906,310
168.719538,-45.017244,310
168.719052,-45.017392,310
168.718758,-45.017448,310
168.717518,-45.01749,313
168.717518,-45.01749,313
168.717135,-45.017505,313
168.717072,-45.017601,312
168.716877,-45.017715,311
168.716286,-45.017972,310
168.716032,-45.018108,310
168.715262,-45.01869,311
168.714813,-45.01883,311
168.714396,-45.018844,311
168.714275,-45.018891,311
168.713988,-45.018939,310
168.713597,-45.018905,312
168.713114,-45.018996,312
168.712717,-45.019178,313
168.712275,-45.019406,313
168.7119,-45.019694,312
168.711564,-45.019856,312
168.711236,-45.019944,313
168.710641,-45.020148,312
168.709938,-45.020349,310
168.709067,-45.020498,311
168.708216,-45.020664,311
168.707712,-45.020732,311
168.707202,-45.020766,312
168.706768,-45.020759,314
168.706387,-45.020816,315
168.706142,-45.020895,315
168.705991,-45.020989,315
168.705615,-45.021403,312
168.705196,-45.021718,313
168.704708,-45.021995,314
168.704408,-45.022242,314
168.703426,-45.022575,316
168.703233,-45.022726,314
168.702598,-45.02289,313
168.7022,-45.022945,315
168.702031,-45.023,315
168.701752,-45.023197,314
168.701429,-45.023295,315
168.701429,-45.023295,315
168.7001,-45.023777,314
168.699816,-45.023848,314
168.69933,-45.023998,314
168.698995,-45.024153,313
168.698126,-45.02463,314
168.697836,-45.024903,316
168.697643,-45.025229,315
168.697326,-45.025458,316
168.696978,-45.025624,317
168.696011,-45.026021,317
168.695656,-45.026227,315
168.695245,-45.026378,316
168.694877,-45.026556,314
168.694537,-45.026674,313
168.693749,-45.026822,315
168.693366,-45.026912,315
168.693096,-45.027052,314
168.692399,-45.027179,316
168.691034,-45.027572,317
168.690401,-45.027898,315
168.690079,-45.028171,314
168.689543,-45.028474,313
168.689031,-45.028709,314
168.688752,-45.028798,316
168.688349,-45.028967,318
168.688172,-45.029087,319
168.687472,-45.029743,316
168.685185,-45.03133,318
168.683536,-45.032705,319
168.68245,-45.03371,318
168.68209,-45.034094,315
168.681856,-45.034286,313
168.681553,-45.034418,312
168.680896,-45.03464,312
168.680375,-45.034673,314
168.680072,-45.034726,314
168.679798,-45.034744,314
168.679342,-45.034713,315
168.67894,-45.034726,315
168.678445,-45.034786,314
168.67748,-45.034952,314
168.677162,-45.035038,315
168.676852,-45.035194,313
168.675883,-45.03553,312
168.675189,-45.035745,312
168.674687,-45.035842,312
168.674058,-45.035993,312
168.672059,-45.036407,311
168.671223,-45.036628,310
168.671069,-45.036609,310
168.669817,-45.03613,312
168.669066,-45.0359,312
168.668694,-45.035816,311
168.667981,-45.035778,312
168.666515,-45.035925,312
168.66497,-45.036208,312
168.663756,-45.036586,310
168.663669,-45.036599,310
168.663655,-45.036632,309
168.663419,-45.036714,309
168.662877,-45.036894,309
168.662741,-45.03696,309
168.662696,-45.037029,309
168.662562,-45.037123,309
168.662429,-45.037181,309
168.662374,-45.037277,309
168.66205,-45.037538,309
168.661748,-45.037874,309
168.661702,-45.038079,308
168.661623,-45.038289,308
168.661305,-45.038648,308
168.661024,-45.038903,308
168.660779,-45.039019,309
168.660352,-45.039152,310
168.660211,-45.039224,310
168.660097,-45.039341,309
168.659909,-45.039622,308
168.659909,-45.039622,308
168.659838,-45.039729,308
168.659619,-45.039861,308
168.659364,-45.039962,308
168.659222,-45.040002,308
168.65905,-45.040004,308
168.658865,-45.039958,309
168.65859,-45.03986,310
168.658305,-45.03979,310
168.657843,-45.039615,310
168.657406,-45.039306,309
168.657,-45.038949,308
168.656982,-45.038904,308
168.656983,-45.038904,308
168.657,-45.038653,308
168.657224,-45.038344,310
168.657401,-45.03798,310
168.657602,-45.037824,310
168.658126,-45.037539,311
168.658842,-45.037178,312
168.658842,-45.037178,312
168.659955,-45.0366,312
168.660726,-45.036124,310
168.661006,-45.03597,310
168.661244,-45.035806,310
168.662434,-45.03507,315
168.662552,-45.034762,315
168.662527,-45.03471,315
168.662484,-45.034637,315
168.662475,-45.034621,314
168.662446,-45.034582,314
168.66235,-45.034471,314
168.662292,-45.034357,313
168.662312,-45.034304,313
168.662362,-45.03425,314
168.662142,-45.0341,312
168.662141,-45.0341,312
168.661921,-45.033944,311
168.661126,-45.033382,309
168.660993,-45.0334,309
168.660446,-45.032985,309
168.660256,-45.032891,309
168.660169,-45.032827,309
168.660283,-45.032773,309
168.660273,-45.03264,309
168.660247,-45.03259,310
168.659233,-45.03194,314
168.659186,-45.031847,315
168.659104,-45.031858,315
168.659056,-45.031838,315
168.659031,-45.031774,316
168.659064,-45.031736,316
168.65894,-45.031608,317
168.659447,-45.030877,319
168.659447,-45.030877,319
168.659748,-45.03043,319
168.659827,-45.030413,319
168.659849,-45.030363,319
168.659826,-45.030331,319
168.65992,-45.030264,318
168.65992,-45.030264,318
168.659979,-45.030222,318
168.659823,-45.030093,319
168.659712,-45.030051,319
</coordinates>
</LineString>
</Placemark>
<Placemark>
<name>START</name>
<styleUrl>#StartIconStyle</styleUrl>
<Point>
<coordinates>168.816141,-44.946964,407</coordinates>
</Point>
</Placemark>
<Placemark>
<name><![CDATA[Start on T]]></name>
<description><![CDATA[Start on The Avenue]]></description>
<styleUrl>#WaypointIconStyle</styleUrl>
<Point>
<coordinates>168.816141,-44.946964,0</coordinates>
</Point>
</Placemark>
<Placemark>
<name><![CDATA[Turn right]]></name>
<description><![CDATA[Turn right onto Malaghans Road]]></description>
<styleUrl>#WaypointIconStyle</styleUrl>
<Point>
<coordinates>168.817874,-44.942455,0</coordinates>
</Point>
</Placemark>
<Placemark>
<name><![CDATA[Turn left ]]></name>
<description><![CDATA[Turn left onto Manse Road]]></description>
<styleUrl>#WaypointIconStyle</styleUrl>
<Point>
<coordinates>168.81922,-44.942444,0</coordinates>
</Point>
</Placemark>
<Placemark>
<name><![CDATA[Turn left ]]></name>
<description><![CDATA[Turn left onto Bush Creek Road]]></description>
<styleUrl>#WaypointIconStyle</styleUrl>
<Point>
<coordinates>168.821454,-44.938937,0</coordinates>
</Point>
</Placemark>
<Placemark>
<name><![CDATA[Turn left ]]></name>
<description><![CDATA[Turn left onto Manse Road]]></description>
<styleUrl>#WaypointIconStyle</styleUrl>
<Point>
<coordinates>168.821454,-44.938937,0</coordinates>
</Point>
</Placemark>
<Placemark>
<name><![CDATA[Keep right]]></name>
<description><![CDATA[Keep right onto Manse Road]]></description>
<styleUrl>#WaypointIconStyle</styleUrl>
<Point>
<coordinates>168.824699,-44.938492,0</coordinates>
</Point>
</Placemark>
<Placemark>
<name><![CDATA[Turn sharp]]></name>
<description><![CDATA[Turn sharp left onto Surrey Street]]></description>
<styleUrl>#WaypointIconStyle</styleUrl>
<Point>
<coordinates>168.82778,-44.939053,0</coordinates>
</Point>
</Placemark>
<Placemark>
<name><![CDATA[Turn sligh]]></name>
<description><![CDATA[Turn slight right onto Villiers Street]]></description>
<styleUrl>#WaypointIconStyle</styleUrl>
<Point>
<coordinates>168.827962,-44.93833,0</coordinates>
</Point>
</Placemark>
<Placemark>
<name><![CDATA[Keep left]]></name>
<description><![CDATA[Keep left]]></description>
<styleUrl>#WaypointIconStyle</styleUrl>
<Point>
<coordinates>168.836349,-44.939439,0</coordinates>
</Point>
</Placemark>
<Placemark>
<name><![CDATA[Turn left ]]></name>
<description><![CDATA[Turn left onto Bedford]]></description>
<styleUrl>#WaypointIconStyle</styleUrl>
<Point>
<coordinates>168.836544,-44.939321,0</coordinates>
</Point>
</Placemark>
<Placemark>
<name><![CDATA[Turn right]]></name>
<description><![CDATA[Turn right onto Nairn Street]]></description>
<styleUrl>#WaypointIconStyle</styleUrl>
<Point>
<coordinates>168.836517,-44.939289,0</coordinates>
</Point>
</Placemark>
<Placemark>
<name><![CDATA[Turn left]]></name>
<description><![CDATA[Turn left]]></description>
<styleUrl>#WaypointIconStyle</styleUrl>
<Point>
<coordinates>168.837339,-44.939044,0</coordinates>
</Point>
</Placemark>
<Placemark>
<name><![CDATA[Turn sharp]]></name>
<description><![CDATA[Turn sharp right]]></description>
<styleUrl>#WaypointIconStyle</styleUrl>
<Point>
<coordinates>168.837391,-44.938421,0</coordinates>
</Point>
</Placemark>
<Placemark>
<name><![CDATA[Keep right]]></name>
<description><![CDATA[Keep right]]></description>
<styleUrl>#WaypointIconStyle</styleUrl>
<Point>
<coordinates>168.840656,-44.940928,0</coordinates>
</Point>
</Placemark>
<Placemark>
<name><![CDATA[Turn left]]></name>
<description><![CDATA[Turn left]]></description>
<styleUrl>#WaypointIconStyle</styleUrl>
<Point>
<coordinates>168.8454,-44.946544,0</coordinates>
</Point>
</Placemark>
<Placemark>
<name><![CDATA[Turn right]]></name>
<description><![CDATA[Turn right]]></description>
<styleUrl>#WaypointIconStyle</styleUrl>
<Point>
<coordinates>168.845757,-44.946528,0</coordinates>
</Point>
</Placemark>
<Placemark>
<name><![CDATA[Turn right]]></name>
<description><![CDATA[Turn right]]></description>
<styleUrl>#WaypointIconStyle</styleUrl>
<Point>
<coordinates>168.85464,-44.96682,0</coordinates>
</Point>
</Placemark>
<Placemark>
<name><![CDATA[Turn sharp]]></name>
<description><![CDATA[Turn sharp left onto Centennial Avenue]]></description>
<styleUrl>#WaypointIconStyle</styleUrl>
<Point>
<coordinates>168.851419,-44.964169,0</coordinates>
</Point>
</Placemark>
<Placemark>
<name><![CDATA[Turn sharp]]></name>
<description><![CDATA[Turn sharp right onto Mcdonnell Road]]></description>
<styleUrl>#WaypointIconStyle</styleUrl>
<Point>
<coordinates>168.8504,-44.967955,0</coordinates>
</Point>
</Placemark>
<Placemark>
<name><![CDATA[Turn left ]]></name>
<description><![CDATA[Turn left onto Hogans Gully Road]]></description>
<styleUrl>#WaypointIconStyle</styleUrl>
<Point>
<coordinates>168.849184,-44.967153,0</coordinates>
</Point>
</Placemark>
<Placemark>
<name><![CDATA[Turn left ]]></name>
<description><![CDATA[Turn left onto Arrowtown Lake Hayes Road]]></description>
<styleUrl>#WaypointIconStyle</styleUrl>
<Point>
<coordinates>168.817758,-44.961579,0</coordinates>
</Point>
</Placemark>
<Placemark>
<name><![CDATA[Turn right]]></name>
<description><![CDATA[Turn right onto Lake Hayes Walkway]]></description>
<styleUrl>#WaypointIconStyle</styleUrl>
<Point>
<coordinates>168.816613,-44.972601,0</coordinates>
</Point>
</Placemark>
<Placemark>
<name><![CDATA[Turn sharp]]></name>
<description><![CDATA[Turn sharp left onto Lake Hayes Walkway]]></description>
<styleUrl>#WaypointIconStyle</styleUrl>
<Point>
<coordinates>168.81644,-44.972549,0</coordinates>
</Point>
</Placemark>
<Placemark>
<name><![CDATA[Keep left ]]></name>
<description><![CDATA[Keep left onto Rutherford Road]]></description>
<styleUrl>#WaypointIconStyle</styleUrl>
<Point>
<coordinates>168.808283,-44.96696,0</coordinates>
</Point>
</Placemark>
<Placemark>
<name><![CDATA[Turn right]]></name>
<description><![CDATA[Turn right onto Slope Hill Road]]></description>
<styleUrl>#WaypointIconStyle</styleUrl>
<Point>
<coordinates>168.803609,-44.963481,0</coordinates>
</Point>
</Placemark>
<Placemark>
<name><![CDATA[Turn left ]]></name>
<description><![CDATA[Turn left onto Speargrass Flat Road]]></description>
<styleUrl>#WaypointIconStyle</styleUrl>
<Point>
<coordinates>168.804461,-44.960895,0</coordinates>
</Point>
</Placemark>
<Placemark>
<name><![CDATA[Turn left ]]></name>
<description><![CDATA[Turn left onto Lower Shotover Road]]></description>
<styleUrl>#WaypointIconStyle</styleUrl>
<Point>
<coordinates>168.762733,-44.968303,0</coordinates>
</Point>
</Placemark>
<Placemark>
<name><![CDATA[Turn sharp]]></name>
<description><![CDATA[Turn sharp right onto Domain Road]]></description>
<styleUrl>#WaypointIconStyle</styleUrl>
<Point>
<coordinates>168.767149,-44.988008,0</coordinates>
</Point>
</Placemark>
<Placemark>
<name><![CDATA[Turn left]]></name>
<description><![CDATA[Turn left]]></description>
<styleUrl>#WaypointIconStyle</styleUrl>
<Point>
<coordinates>168.766647,-44.987693,0</coordinates>
</Point>
</Placemark>
<Placemark>
<name><![CDATA[Turn right]]></name>
<description><![CDATA[Turn right]]></description>
<styleUrl>#WaypointIconStyle</styleUrl>
<Point>
<coordinates>168.765397,-44.988357,0</coordinates>
</Point>
</Placemark>
<Placemark>
<name><![CDATA[Turn left]]></name>
<description><![CDATA[Turn left]]></description>
<styleUrl>#WaypointIconStyle</styleUrl>
<Point>
<coordinates>168.760997,-44.989031,0</coordinates>
</Point>
</Placemark>
<Placemark>
<name><![CDATA[Turn left]]></name>
<description><![CDATA[Turn left]]></description>
<styleUrl>#WaypointIconStyle</styleUrl>
<Point>
<coordinates>168.75939,-44.996472,0</coordinates>
</Point>
</Placemark>
<Placemark>
<name><![CDATA[Turn left ]]></name>
<description><![CDATA[Turn left onto Spence Road]]></description>
<styleUrl>#WaypointIconStyle</styleUrl>
<Point>
<coordinates>168.76024,-44.996747,0</coordinates>
</Point>
</Placemark>
<Placemark>
<name><![CDATA[Turn left]]></name>
<description><![CDATA[Turn left]]></description>
<styleUrl>#WaypointIconStyle</styleUrl>
<Point>
<coordinates>168.760242,-44.996646,0</coordinates>
</Point>
</Placemark>
<Placemark>
<name><![CDATA[Turn left]]></name>
<description><![CDATA[Turn left]]></description>
<styleUrl>#WaypointIconStyle</styleUrl>
<Point>
<coordinates>168.757141,-44.996807,0</coordinates>
</Point>
</Placemark>
<Placemark>
<name><![CDATA[Keep left]]></name>
<description><![CDATA[Keep left]]></description>
<styleUrl>#WaypointIconStyle</styleUrl>
<Point>
<coordinates>168.756565,-45.002211,0</coordinates>
</Point>
</Placemark>
<Placemark>
<name><![CDATA[Keep left]]></name>
<description><![CDATA[Keep left]]></description>
<styleUrl>#WaypointIconStyle</styleUrl>
<Point>
<coordinates>168.744033,-45.031942,0</coordinates>
</Point>
</Placemark>
<Placemark>
<name><![CDATA[Turn sligh]]></name>
<description><![CDATA[Turn slight left]]></description>
<styleUrl>#WaypointIconStyle</styleUrl>
<Point>
<coordinates>168.739911,-45.029795,0</coordinates>
</Point>
</Placemark>
<Placemark>
<name><![CDATA[Turn left ]]></name>
<description><![CDATA[Turn left onto Robertson Street]]></description>
<styleUrl>#WaypointIconStyle</styleUrl>
<Point>
<coordinates>168.735018,-45.027285,0</coordinates>
</Point>
</Placemark>
<Placemark>
<name><![CDATA[Turn left ]]></name>
<description><![CDATA[Turn left onto Southberg Avenue]]></description>
<styleUrl>#WaypointIconStyle</styleUrl>
<Point>
<coordinates>168.734187,-45.026656,0</coordinates>
</Point>
</Placemark>
<Placemark>
<name><![CDATA[Turn right]]></name>
<description><![CDATA[Turn right onto Kawarau Road, SH 6]]></description>
<styleUrl>#WaypointIconStyle</styleUrl>
<Point>
<coordinates>168.733977,-45.026627,0</coordinates>
</Point>
</Placemark>
<Placemark>
<name><![CDATA[Turn left]]></name>
<description><![CDATA[Turn left]]></description>
<styleUrl>#WaypointIconStyle</styleUrl>
<Point>
<coordinates>168.733982,-45.026201,0</coordinates>
</Point>
</Placemark>
<Placemark>
<name><![CDATA[Keep left ]]></name>
<description><![CDATA[Keep left onto Allan Crescent]]></description>
<styleUrl>#WaypointIconStyle</styleUrl>
<Point>
<coordinates>168.73153,-45.024095,0</coordinates>
</Point>
</Placemark>
<Placemark>
<name><![CDATA[Turn left]]></name>
<description><![CDATA[Turn left]]></description>
<styleUrl>#WaypointIconStyle</styleUrl>
<Point>
<coordinates>168.730613,-45.023891,0</coordinates>
</Point>
</Placemark>
<Placemark>
<name><![CDATA[Turn right]]></name>
<description><![CDATA[Turn right onto Frankton Arm Walkway]]></description>
<styleUrl>#WaypointIconStyle</styleUrl>
<Point>
<coordinates>168.730511,-45.023938,0</coordinates>
</Point>
</Placemark>
<Placemark>
<name><![CDATA[Turn sligh]]></name>
<description><![CDATA[Turn slight left onto Shoreline Road]]></description>
<styleUrl>#WaypointIconStyle</styleUrl>
<Point>
<coordinates>168.725495,-45.017729,0</coordinates>
</Point>
</Placemark>
<Placemark>
<name><![CDATA[Turn left ]]></name>
<description><![CDATA[Turn left onto Sugar Lane]]></description>
<styleUrl>#WaypointIconStyle</styleUrl>
<Point>
<coordinates>168.717135,-45.017505,0</coordinates>
</Point>
</Placemark>
<Placemark>
<name><![CDATA[Keep left ]]></name>
<description><![CDATA[Keep left onto Frankton Arm Walkway]]></description>
<styleUrl>#WaypointIconStyle</styleUrl>
<Point>
<coordinates>168.697836,-45.024903,0</coordinates>
</Point>
</Placemark>
<Placemark>
<name><![CDATA[Turn left]]></name>
<description><![CDATA[Turn left]]></description>
<styleUrl>#WaypointIconStyle</styleUrl>
<Point>
<coordinates>168.663669,-45.036599,0</coordinates>
</Point>
</Placemark>
<Placemark>
<name><![CDATA[Turn right]]></name>
<description><![CDATA[Turn right]]></description>
<styleUrl>#WaypointIconStyle</styleUrl>
<Point>
<coordinates>168.663655,-45.036632,0</coordinates>
</Point>
</Placemark>
<Placemark>
<name><![CDATA[Keep right]]></name>
<description><![CDATA[Keep right]]></description>
<styleUrl>#WaypointIconStyle</styleUrl>
<Point>
<coordinates>168.663419,-45.036714,0</coordinates>
</Point>
</Placemark>
<Placemark>
<name><![CDATA[Keep left]]></name>
<description><![CDATA[Keep left]]></description>
<styleUrl>#WaypointIconStyle</styleUrl>
<Point>
<coordinates>168.657843,-45.039615,0</coordinates>
</Point>
</Placemark>
<Placemark>
<name><![CDATA[Turn sligh]]></name>
<description><![CDATA[Turn slight left]]></description>
<styleUrl>#WaypointIconStyle</styleUrl>
<Point>
<coordinates>168.662434,-45.03507,0</coordinates>
</Point>
</Placemark>
<Placemark>
<name><![CDATA[Keep left]]></name>
<description><![CDATA[Keep left]]></description>
<styleUrl>#WaypointIconStyle</styleUrl>
<Point>
<coordinates>168.662552,-45.034762,0</coordinates>
</Point>
</Placemark>
<Placemark>
<name><![CDATA[Turn sligh]]></name>
<description><![CDATA[Turn slight right]]></description>
<styleUrl>#WaypointIconStyle</styleUrl>
<Point>
<coordinates>168.662292,-45.034357,0</coordinates>
</Point>
</Placemark>
<Placemark>
<name><![CDATA[Turn left]]></name>
<description><![CDATA[Turn left]]></description>
<styleUrl>#WaypointIconStyle</styleUrl>
<Point>
<coordinates>168.662362,-45.03425,0</coordinates>
</Point>
</Placemark>
<Placemark>
<name><![CDATA[Keep left]]></name>
<description><![CDATA[Keep left]]></description>
<styleUrl>#WaypointIconStyle</styleUrl>
<Point>
<coordinates>168.661921,-45.033944,0</coordinates>
</Point>
</Placemark>
<Placemark>
<name><![CDATA[Turn right]]></name>
<description><![CDATA[Turn right]]></description>
<styleUrl>#WaypointIconStyle</styleUrl>
<Point>
<coordinates>168.660169,-45.032827,0</coordinates>
</Point>
</Placemark>
<Placemark>
<name><![CDATA[Turn left ]]></name>
<description><![CDATA[Turn left onto Queenstown Mall]]></description>
<styleUrl>#WaypointIconStyle</styleUrl>
<Point>
<coordinates>168.660283,-45.032773,0</coordinates>
</Point>
</Placemark>
<Placemark>
<name><![CDATA[At roundab]]></name>
<description><![CDATA[At roundabout, take exit 2 onto Brecon Street]]></description>
<styleUrl>#WaypointIconStyle</styleUrl>
<Point>
<coordinates>168.659186,-45.031847,0</coordinates>
</Point>
</Placemark>
<Placemark>
<name><![CDATA[Turn right]]></name>
<description><![CDATA[Turn right onto Duke Street]]></description>
<styleUrl>#WaypointIconStyle</styleUrl>
<Point>
<coordinates>168.65894,-45.031608,0</coordinates>
</Point>
</Placemark>
<Placemark>
<name><![CDATA[At roundab]]></name>
<description><![CDATA[At roundabout, take exit 2 onto Memorial Street]]></description>
<styleUrl>#WaypointIconStyle</styleUrl>
<Point>
<coordinates>168.659748,-45.03043,0</coordinates>
</Point>
</Placemark>
<Placemark>
<name><![CDATA[Turn left]]></name>
<description><![CDATA[Turn left]]></description>
<styleUrl>#WaypointIconStyle</styleUrl>
<Point>
<coordinates>168.659979,-45.030222,0</coordinates>
</Point>
</Placemark>
<Placemark>
<name><![CDATA[FINISH]]></name>
<description><![CDATA[FINISH]]></description>
<styleUrl>#WaypointIconStyle</styleUrl>
<Point>
<coordinates>168.659712,-45.030051,0</coordinates>
</Point>
</Placemark>
<Placemark>
<name><![CDATA[FINISH]]></name>
<styleUrl>#FinishIconStyle</styleUrl>
<Point>
<coordinates>168.659712,-45.030051,319</coordinates>
</Point>
</Placemark>
</Folder>
<ScreenOverlay>
<name><![CDATA[plotaroute.com]]></name>
<visibility>1</visibility>
<open>1</open>
<Icon>
<href>https://www.plotaroute.com/images/logo34reversev3.png</href>
</Icon>
<overlayXY x="0" y="0" xunits="fraction" yunits="fraction"/>
<screenXY x="0.01" y="0.94" xunits="fraction" yunits="fraction"/>
<rotationXY x="0" y="0" xunits="fraction" yunits="fraction"/>
<size x="0" y="0" xunits="fraction" yunits="fraction"/>
</ScreenOverlay>
<Snippet><![CDATA[This route was downloaded from <a href="https://www.plotaroute.com">plotaroute.com</a>]]></Snippet>
</Document>
</kml>
